ONEWEB-0661             
1 55821U 23029AB  24003.78803802 -.00000006  00000+0 -51822-4 0  9991
2 55821  87.8986 107.9728 0001613 125.8161 234.3118 13.14504712 41755
ONEWEB-0662             
1 55822U 23029AC  24003.82292877  .00000141  00000+0  34478-3 0  9996
2 55822  87.8990 107.9740 0001871 119.9792 240.1523 13.14502492 41809
ONEWEB-0663             
1 55823U 23029AD  24004.20705815  .00000051  00000+0  93214-4 0  9995
2 55823  87.9199  92.6212 0001969 117.5783 242.5551 13.20773430 43682
ONEWEB-0664             
1 55824U 23029AE  24003.74618977  .00000078  00000+0  16002-3 0  9994
2 55824  87.9199  92.7244 0001252 115.0788 245.0475 13.20770122 42948
ONEWEB-0665             
1 55825U 23029AF  24003.78486051 -.00000149  00000+0 -43697-3 0  9996
2 55825  87.8986 107.9486 0001746 120.9272 239.2029 13.14504253 41773
ONEWEB-0666             
1 55826U 23029AG  24003.73986533  .00000078  00000+0  15986-3 0  9991
2 55826  87.9198  92.7172 0001636  87.3561 272.7759 13.20768897 42954
ONEWEB-0667             
1 55827U 23029AH  24003.80931614  .00000158  00000+0  35758-3 0  9998
2 55827  87.9199  92.6378 0001593 116.8345 243.2952 13.20770559 42959
ONEWEB-0669             
1 55828U 23029AJ  24003.80458267  .00000125  00000+0  27548-3 0  9999
2 55828  87.9198  92.6770 0001032  79.8140 280.3110 13.20775410 42953
